{
  "type": "FeatureCollection",
  "metadata": {
    "source": "https://www.aqionline.in/dashboard",
    "timestamp": "2026-10-06T19:08:19.004Z",
    "count": 40
  },
  "features": [
    {
      "type": "Feature",
      "geometry": {
        "type": "Point",
        "coordinates": [
          74.096667,
          15.186944
        ]
      },
      "properties": {
        "device_id": "MCT2408028",
        "online": true,
        "isPublic": true,
        "time": "2026-10-06T19:08:01.490Z",
        "aqi": 85,
        "co": 386.9,
        "co_unit": "ppb",
        "co2": 530,
        "co2_unit": "ppm",
        "hum": 87.62793,
        "hum_unit": "%",
        "no2": 17.47,
        "no2_unit": "ppb",
        "o3": 12.45,
        "o3_unit": "ppb",
        "pm1": 27.97,
        "pm1_unit": "μg/m³",
        "pm10": 88.5,
        "pm10_unit": "μg/m³",
        "pm25": 48.71,
        "pm25_unit": "μg/m³",
        "so2": 3.57,
        "so2_unit": "ppb",
        "temp": 25.58731,
        "temp_unit": "°C"
      }
    },
    {
      "type": "Feature",
      "geometry": {
        "type": "Point",
        "coordinates": [
          74.039433,
          15.543475
        ]
      },
      "properties": {
        "device_id": "MCT2408020",
        "online": true,
        "isPublic": true,
        "time": "2026-10-06T19:08:02.733Z",
        "aqi": 65,
        "co": 180,
        "co_unit": "ppb",
        "co2": 610,
        "co2_unit": "ppm",
        "hum": 84.98053,
        "hum_unit": "%",
        "no2": 9.827299,
        "no2_unit": "ppb",
        "o3": 18.31274,
        "o3_unit": "ppb",
        "pm1": 19.48,
        "pm1_unit": "μg/m³",
        "pm10": 58.71,
        "pm10_unit": "μg/m³",
        "pm25": 30.67,
        "pm25_unit": "μg/m³",
        "so2": 3.66,
        "so2_unit": "ppb",
        "temp": 26.74562,
        "temp_unit": "°C"
      }
    },
    {
      "type": "Feature",
      "geometry": {
        "type": "Point",
        "coordinates": [
          74.104722,
          15.272222
        ]
      },
      "properties": {
        "device_id": "MCT2408057",
        "online": true,
        "isPublic": true,
        "time": "2026-10-06T19:08:03.319Z",
        "aqi": 45,
        "co": 303.97,
        "co_unit": "ppb",
        "co2": 491,
        "co2_unit": "ppm",
        "hum": 86.30804,
        "hum_unit": "%",
        "no2": 12.28,
        "no2_unit": "ppb",
        "o3": 9.59,
        "o3_unit": "ppb",
        "pm1": 16.09,
        "pm1_unit": "μg/m³",
        "pm10": 44.67,
        "pm10_unit": "μg/m³",
        "pm25": 22.14,
        "pm25_unit": "μg/m³",
        "so2": 1.57,
        "so2_unit": "ppb",
        "temp": 27.15317,
        "temp_unit": "°C"
      }
    },
    {
      "type": "Feature",
      "geometry": {
        "type": "Point",
        "coordinates": [
          73.920833,
          15.579167
        ]
      },
      "properties": {
        "device_id": "MCT2408056",
        "online": true,
        "isPublic": true,
        "time": "2026-10-06T19:07:52.162Z",
        "aqi": 72,
        "co": 180,
        "co_unit": "ppb",
        "co2": 490,
        "co2_unit": "ppm",
        "hum": 85.7511,
        "hum_unit": "%",
        "no2": 6.33,
        "no2_unit": "ppb",
        "o3": 9,
        "o3_unit": "ppb",
        "pm1": 24.4,
        "pm1_unit": "μg/m³",
        "pm10": 71.95,
        "pm10_unit": "μg/m³",
        "pm25": 39.36,
        "pm25_unit": "μg/m³",
        "so2": 1.56,
        "so2_unit": "ppb",
        "temp": 26.70272,
        "temp_unit": "°C"
      }
    },
    {
      "type": "Feature",
      "geometry": {
        "type": "Point",
        "coordinates": [
          73.885556,
          15.585833
        ]
      },
      "properties": {
        "device_id": "MCT2408055",
        "online": true,
        "isPublic": true,
        "time": "2026-10-06T19:08:15.280Z",
        "aqi": 75,
        "co": 70.37,
        "co_unit": "ppb",
        "co2": 601,
        "co2_unit": "ppm",
        "hum": 83.90479,
        "hum_unit": "%",
        "no2": 9.7,
        "no2_unit": "ppb",
        "o3": 4.15,
        "o3_unit": "ppb",
        "pm1": 17.48,
        "pm1_unit": "μg/m³",
        "pm10": 49.34,
        "pm10_unit": "μg/m³",
        "pm25": 26.58,
        "pm25_unit": "μg/m³",
        "so2": 22.77,
        "so2_unit": "ppb",
        "temp": 26.69199,
        "temp_unit": "°C"
      }
    },
    {
      "type": "Feature",
      "geometry": {
        "type": "Point",
        "coordinates": [
          74.110833,
          15.263333
        ]
      },
      "properties": {
        "device_id": "MCT2408053",
        "online": true,
        "isPublic": true,
        "time": "2026-10-06T19:07:49.881Z",
        "aqi": 106,
        "co": 129.3356,
        "co_unit": "ppb",
        "co2": 692,
        "co2_unit": "ppm",
        "hum": 90.79413,
        "hum_unit": "%",
        "no2": 2.99,
        "no2_unit": "ppb",
        "o3": 17.18,
        "o3_unit": "ppb",
        "pm1": 23.88,
        "pm1_unit": "μg/m³",
        "pm10": 77.78,
        "pm10_unit": "μg/m³",
        "pm25": 48.51,
        "pm25_unit": "μg/m³",
        "so2": 37.93,
        "so2_unit": "ppb",
        "temp": 26.24154,
        "temp_unit": "°C"
      }
    },
    {
      "type": "Feature",
      "geometry": {
        "type": "Point",
        "coordinates": [
          74.063856,
          15.444425
        ]
      },
      "properties": {
        "device_id": "MCT2408052",
        "online": true,
        "isPublic": true,
        "time": "2026-10-06T19:08:17.106Z",
        "aqi": 51,
        "co": 160,
        "co_unit": "ppb",
        "co2": 593,
        "co2_unit": "ppm",
        "hum": 84.78217,
        "hum_unit": "%",
        "no2": 23.99719,
        "no2_unit": "ppb",
        "o3": 8,
        "o3_unit": "ppb",
        "pm1": 9.03,
        "pm1_unit": "μg/m³",
        "pm10": 27.93,
        "pm10_unit": "μg/m³",
        "pm25": 14.5,
        "pm25_unit": "μg/m³",
        "so2": 2,
        "so2_unit": "ppb",
        "temp": 26.84215,
        "temp_unit": "°C"
      }
    },
    {
      "type": "Feature",
      "geometry": {
        "type": "Point",
        "coordinates": [
          74.053333,
          15.500556
        ]
      },
      "properties": {
        "device_id": "MCT2408021",
        "online": true,
        "isPublic": true,
        "time": "2026-10-06T19:08:09.342Z",
        "aqi": 51,
        "co": 375,
        "co_unit": "ppb",
        "co2": 536,
        "co2_unit": "ppm",
        "hum": 83.21814,
        "hum_unit": "%",
        "no2": 22.1,
        "no2_unit": "ppb",
        "o3": 15.07088,
        "o3_unit": "ppb",
        "pm1": 10.48,
        "pm1_unit": "μg/m³",
        "pm10": 31.3,
        "pm10_unit": "μg/m³",
        "pm25": 19.05,
        "pm25_unit": "μg/m³",
        "so2": 4.27,
        "so2_unit": "ppb",
        "temp": 26.69199,
        "temp_unit": "°C"
      }
    },
    {
      "type": "Feature",
      "geometry": {
        "type": "Point",
        "coordinates": [
          74.087222,
          15.221111
        ]
      },
      "properties": {
        "device_id": "MCT2408043",
        "online": true,
        "isPublic": true,
        "time": "2026-10-06T19:07:59.669Z",
        "aqi": 93,
        "co": 168.78,
        "co_unit": "ppb",
        "co2": 603,
        "co2_unit": "ppm",
        "hum": 85.28571,
        "hum_unit": "%",
        "no2": 14.17,
        "no2_unit": "ppb",
        "o3": 9.62,
        "o3_unit": "ppb",
        "pm1": 29.13,
        "pm1_unit": "μg/m³",
        "pm10": 87.55,
        "pm10_unit": "μg/m³",
        "pm25": 44.84,
        "pm25_unit": "μg/m³",
        "so2": 5.29,
        "so2_unit": "ppb",
        "temp": 26.53112,
        "temp_unit": "°C"
      }
    },
    {
      "type": "Feature",
      "geometry": {
        "type": "Point",
        "coordinates": [
          74.033889,
          15.486528
        ]
      },
      "properties": {
        "device_id": "MCT2408051",
        "online": true,
        "isPublic": true,
        "time": "2026-10-06T19:08:06.481Z",
        "aqi": 51,
        "co": 341.65,
        "co_unit": "ppb",
        "co2": 537,
        "co2_unit": "ppm",
        "hum": 94.54779,
        "hum_unit": "%",
        "no2": 22.12,
        "no2_unit": "ppb",
        "o3": 5.19,
        "o3_unit": "ppb",
        "pm1": 12.44,
        "pm1_unit": "μg/m³",
        "pm10": 39.78,
        "pm10_unit": "μg/m³",
        "pm25": 21.78,
        "pm25_unit": "μg/m³",
        "so2": 4.39,
        "so2_unit": "ppb",
        "temp": 25.42643,
        "temp_unit": "°C"
      }
    },
    {
      "type": "Feature",
      "geometry": {
        "type": "Point",
        "coordinates": [
          73.958333,
          15.553611
        ]
      },
      "properties": {
        "device_id": "MCT2408050",
        "online": true,
        "isPublic": true,
        "time": "2026-10-06T19:08:01.669Z",
        "aqi": 63,
        "co": 86.03,
        "co_unit": "ppb",
        "co2": 602,
        "co2_unit": "ppm",
        "hum": 90.32111,
        "hum_unit": "%",
        "no2": 11.05,
        "no2_unit": "ppb",
        "o3": 4.39,
        "o3_unit": "ppb",
        "pm1": 19.51,
        "pm1_unit": "μg/m³",
        "pm10": 60.97,
        "pm10_unit": "μg/m³",
        "pm25": 32.32,
        "pm25_unit": "μg/m³",
        "so2": 1.83,
        "so2_unit": "ppb",
        "temp": 25.68384,
        "temp_unit": "°C"
      }
    },
    {
      "type": "Feature",
      "geometry": {
        "type": "Point",
        "coordinates": [
          74.123611,
          15.356389
        ]
      },
      "properties": {
        "device_id": "MCT2408034",
        "online": true,
        "isPublic": true,
        "time": "2026-10-06T19:08:10.879Z",
        "aqi": 71,
        "co": 180,
        "co_unit": "ppb",
        "co2": 550,
        "co2_unit": "ppm",
        "hum": 73.42963,
        "hum_unit": "%",
        "no2": 6.15,
        "no2_unit": "ppb",
        "o3": 3.88,
        "o3_unit": "ppb",
        "pm1": 23.7,
        "pm1_unit": "μg/m³",
        "pm10": 74.09,
        "pm10_unit": "μg/m³",
        "pm25": 39.38,
        "pm25_unit": "μg/m³",
        "so2": 1.11,
        "so2_unit": "ppb",
        "temp": 30.14548,
        "temp_unit": "°C"
      }
    },
    {
      "type": "Feature",
      "geometry": {
        "type": "Point",
        "coordinates": [
          74.075003,
          15.142519
        ]
      },
      "properties": {
        "device_id": "MCT2408030",
        "online": true,
        "isPublic": true,
        "time": "2026-10-06T19:07:51.866Z",
        "aqi": 67,
        "co": 163,
        "co_unit": "ppb",
        "co2": 493,
        "co2_unit": "ppm",
        "hum": 81.29553,
        "hum_unit": "%",
        "no2": 9.53,
        "no2_unit": "ppb",
        "o3": 6.2,
        "o3_unit": "ppb",
        "pm1": 22.49,
        "pm1_unit": "μg/m³",
        "pm10": 67.52,
        "pm10_unit": "μg/m³",
        "pm25": 37.86,
        "pm25_unit": "μg/m³",
        "so2": 5.23,
        "so2_unit": "ppb",
        "temp": 26.59547,
        "temp_unit": "°C"
      }
    },
    {
      "type": "Feature",
      "geometry": {
        "type": "Point",
        "coordinates": [
          74.020833,
          15.499722
        ]
      },
      "properties": {
        "device_id": "MCT2408023",
        "online": true,
        "isPublic": true,
        "time": "2026-10-06T19:08:02.028Z",
        "aqi": 84,
        "co": 190.91,
        "co_unit": "ppb",
        "co2": 481,
        "co2_unit": "ppm",
        "hum": 91.19086,
        "hum_unit": "%",
        "no2": 8.98,
        "no2_unit": "ppb",
        "o3": 19.64,
        "o3_unit": "ppb",
        "pm1": 24.08,
        "pm1_unit": "μg/m³",
        "pm10": 74.72,
        "pm10_unit": "μg/m³",
        "pm25": 46.4,
        "pm25_unit": "μg/m³",
        "so2": 5.13,
        "so2_unit": "ppb",
        "temp": 25.35136,
        "temp_unit": "°C"
      }
    },
    {
      "type": "Feature",
      "geometry": {
        "type": "Point",
        "coordinates": [
          74.1075,
          15.275556
        ]
      },
      "properties": {
        "device_id": "MCT2408027",
        "online": true,
        "isPublic": true,
        "time": "2026-10-06T19:07:51.880Z",
        "aqi": 71,
        "co": 630.94,
        "co_unit": "ppb",
        "co2": 584,
        "co2_unit": "ppm",
        "hum": 89.61157,
        "hum_unit": "%",
        "no2": 6.58,
        "no2_unit": "ppb",
        "o3": 12.67,
        "o3_unit": "ppb",
        "pm1": 22.68,
        "pm1_unit": "μg/m³",
        "pm10": 68.01,
        "pm10_unit": "μg/m³",
        "pm25": 35.57,
        "pm25_unit": "μg/m³",
        "so2": 2.95,
        "so2_unit": "ppb",
        "temp": 26.33807,
        "temp_unit": "°C"
      }
    },
    {
      "type": "Feature",
      "geometry": {
        "type": "Point",
        "coordinates": [
          74.020833,
          15.528056
        ]
      },
      "properties": {
        "device_id": "MCT2408040",
        "online": true,
        "isPublic": true,
        "time": "2026-10-06T19:08:02.887Z",
        "aqi": 19,
        "co": 100,
        "co_unit": "ppb",
        "co2": 498,
        "co2_unit": "ppm",
        "hum": 86.79633,
        "hum_unit": "%",
        "no2": 7.84,
        "no2_unit": "ppb",
        "o3": 4.28,
        "o3_unit": "ppb",
        "pm1": 4.22,
        "pm1_unit": "μg/m³",
        "pm10": 12.63,
        "pm10_unit": "μg/m³",
        "pm25": 6.07,
        "pm25_unit": "μg/m³",
        "so2": 3.5,
        "so2_unit": "ppb",
        "temp": 26.40242,
        "temp_unit": "°C"
      }
    },
    {
      "type": "Feature",
      "geometry": {
        "type": "Point",
        "coordinates": [
          74.055833,
          15.475278
        ]
      },
      "properties": {
        "device_id": "MCT2408049",
        "online": true,
        "isPublic": true,
        "time": "2026-10-06T19:08:15.526Z",
        "aqi": 57,
        "co": 150,
        "co_unit": "ppb",
        "co2": 475,
        "co2_unit": "ppm",
        "hum": 83.99634,
        "hum_unit": "%",
        "no2": 24.61,
        "no2_unit": "ppb",
        "o3": 18,
        "o3_unit": "ppb",
        "pm1": 16.1,
        "pm1_unit": "μg/m³",
        "pm10": 45.96,
        "pm10_unit": "μg/m³",
        "pm25": 23.02,
        "pm25_unit": "μg/m³",
        "so2": 2.61,
        "so2_unit": "ppb",
        "temp": 26.63837,
        "temp_unit": "°C"
      }
    },
    {
      "type": "Feature",
      "geometry": {
        "type": "Point",
        "coordinates": [
          74.140042,
          15.313669
        ]
      },
      "properties": {
        "device_id": "MCT2408044",
        "online": true,
        "isPublic": true,
        "time": "2026-10-06T19:07:54.243Z",
        "aqi": 33,
        "co": 214.29,
        "co_unit": "ppb",
        "co2": 487,
        "co2_unit": "ppm",
        "hum": 90.94672,
        "hum_unit": "%",
        "no2": 11.15,
        "no2_unit": "ppb",
        "o3": 3.32,
        "o3_unit": "ppb",
        "pm1": 11.49,
        "pm1_unit": "μg/m³",
        "pm10": 30.5,
        "pm10_unit": "μg/m³",
        "pm25": 17.3,
        "pm25_unit": "μg/m³",
        "so2": 3.415385,
        "so2_unit": "ppb",
        "temp": 25.64094,
        "temp_unit": "°C"
      }
    },
    {
      "type": "Feature",
      "geometry": {
        "type": "Point",
        "coordinates": [
          74.07,
          15.529167
        ]
      },
      "properties": {
        "device_id": "MCT2408046",
        "online": true,
        "isPublic": true,
        "time": "2026-10-06T19:08:10.703Z",
        "aqi": 46,
        "co": 95.52,
        "co_unit": "ppb",
        "co2": 665,
        "co2_unit": "ppm",
        "hum": 84.37018,
        "hum_unit": "%",
        "no2": 13.71,
        "no2_unit": "ppb",
        "o3": 0.27,
        "o3_unit": "ppb",
        "pm1": 15.17,
        "pm1_unit": "μg/m³",
        "pm10": 44.44,
        "pm10_unit": "μg/m³",
        "pm25": 21.78,
        "pm25_unit": "μg/m³",
        "so2": 2.9,
        "so2_unit": "ppb",
        "temp": 27.04592,
        "temp_unit": "°C"
      }
    },
    {
      "type": "Feature",
      "geometry": {
        "type": "Point",
        "coordinates": [
          74.118333,
          15.394444
        ]
      },
      "properties": {
        "device_id": "MCT2408037",
        "online": true,
        "isPublic": true,
        "time": "2026-10-06T19:07:58.411Z",
        "aqi": 57,
        "co": 160,
        "co_unit": "ppb",
        "co2": 503,
        "co2_unit": "ppm",
        "hum": 85.56036,
        "hum_unit": "%",
        "no2": 10.67,
        "no2_unit": "ppb",
        "o3": 14.28,
        "o3_unit": "ppb",
        "pm1": 16.35,
        "pm1_unit": "μg/m³",
        "pm10": 54.79,
        "pm10_unit": "μg/m³",
        "pm25": 26.23,
        "pm25_unit": "μg/m³",
        "so2": 3.63,
        "so2_unit": "ppb",
        "temp": 25.85544,
        "temp_unit": "°C"
      }
    },
    {
      "type": "Feature",
      "geometry": {
        "type": "Point",
        "coordinates": [
          74.071667,
          15.213889
        ]
      },
      "properties": {
        "device_id": "MCT2408042",
        "online": true,
        "isPublic": true,
        "time": "2026-10-06T19:07:46.720Z",
        "aqi": 73,
        "co": 201.55,
        "co_unit": "ppb",
        "co2": 494,
        "co2_unit": "ppm",
        "hum": 87.71948,
        "hum_unit": "%",
        "no2": 26.07,
        "no2_unit": "ppb",
        "o3": 13.98,
        "o3_unit": "ppb",
        "pm1": 23.66,
        "pm1_unit": "μg/m³",
        "pm10": 69.31,
        "pm10_unit": "μg/m³",
        "pm25": 35.53,
        "pm25_unit": "μg/m³",
        "so2": 2.37,
        "so2_unit": "ppb",
        "temp": 26.7349,
        "temp_unit": "°C"
      }
    },
    {
      "type": "Feature",
      "geometry": {
        "type": "Point",
        "coordinates": [
          74.171389,
          15.224628
        ]
      },
      "properties": {
        "device_id": "MCT2408041",
        "online": true,
        "isPublic": true,
        "time": "2026-10-06T19:08:07.146Z",
        "aqi": 57,
        "co": 347.3772,
        "co_unit": "ppb",
        "co2": 538,
        "co2_unit": "ppm",
        "hum": 88.75708,
        "hum_unit": "%",
        "no2": 13.41,
        "no2_unit": "ppb",
        "o3": 9.7,
        "o3_unit": "ppb",
        "pm1": 19.41,
        "pm1_unit": "μg/m³",
        "pm10": 56.7,
        "pm10_unit": "μg/m³",
        "pm25": 29.12,
        "pm25_unit": "μg/m³",
        "so2": 8.03,
        "so2_unit": "ppb",
        "temp": 26.37024,
        "temp_unit": "°C"
      }
    },
    {
      "type": "Feature",
      "geometry": {
        "type": "Point",
        "coordinates": [
          74.007778,
          15.346944
        ]
      },
      "properties": {
        "device_id": "MCT2408033",
        "online": true,
        "isPublic": true,
        "time": "2026-10-06T19:08:03.585Z",
        "aqi": 41,
        "co": 110,
        "co_unit": "ppb",
        "co2": 556,
        "co2_unit": "ppm",
        "hum": 85.37726,
        "hum_unit": "%",
        "no2": 6.94,
        "no2_unit": "ppb",
        "o3": 3.91,
        "o3_unit": "ppb",
        "pm1": 15.76,
        "pm1_unit": "μg/m³",
        "pm10": 39.49,
        "pm10_unit": "μg/m³",
        "pm25": 23.53,
        "pm25_unit": "μg/m³",
        "so2": 4.39,
        "so2_unit": "ppb",
        "temp": 26.68127,
        "temp_unit": "°C"
      }
    },
    {
      "type": "Feature",
      "geometry": {
        "type": "Point",
        "coordinates": [
          74.131667,
          15.148056
        ]
      },
      "properties": {
        "device_id": "MCT2408024",
        "online": true,
        "isPublic": true,
        "time": "2026-10-06T19:08:11.982Z",
        "aqi": 66,
        "co": 211.425,
        "co_unit": "ppb",
        "co2": 762,
        "co2_unit": "ppm",
        "hum": 78.85413,
        "hum_unit": "%",
        "no2": 18.04331,
        "no2_unit": "ppb",
        "o3": 6.017316,
        "o3_unit": "ppb",
        "pm1": 20.98,
        "pm1_unit": "μg/m³",
        "pm10": 63.96,
        "pm10_unit": "μg/m³",
        "pm25": 33.97,
        "pm25_unit": "μg/m³",
        "so2": 3.79,
        "so2_unit": "ppb",
        "temp": 27.17462,
        "temp_unit": "°C"
      }
    },
    {
      "type": "Feature",
      "geometry": {
        "type": "Point",
        "coordinates": [
          73.878889,
          15.619444
        ]
      },
      "properties": {
        "device_id": "MCT2408045",
        "online": true,
        "isPublic": true,
        "time": "2026-10-06T19:08:06.515Z",
        "aqi": 45,
        "co": 178.12,
        "co_unit": "ppb",
        "co2": 722,
        "co2_unit": "ppm",
        "hum": 83.63776,
        "hum_unit": "%",
        "no2": 9.7,
        "no2_unit": "ppb",
        "o3": 15.12,
        "o3_unit": "ppb",
        "pm1": 13.59,
        "pm1_unit": "μg/m³",
        "pm10": 46.2,
        "pm10_unit": "μg/m³",
        "pm25": 23.75,
        "pm25_unit": "μg/m³",
        "so2": 2.53,
        "so2_unit": "ppb",
        "temp": 27.0352,
        "temp_unit": "°C"
      }
    },
    {
      "type": "Feature",
      "geometry": {
        "type": "Point",
        "coordinates": [
          74.038889,
          15.475833
        ]
      },
      "properties": {
        "device_id": "MCT2408022",
        "online": true,
        "isPublic": true,
        "time": "2026-10-06T19:07:47.484Z",
        "aqi": 74,
        "co": 150,
        "co_unit": "ppb",
        "co2": 442,
        "co2_unit": "ppm",
        "hum": 87.36853,
        "hum_unit": "%",
        "no2": 4.51,
        "no2_unit": "ppb",
        "o3": 11.99699,
        "o3_unit": "ppb",
        "pm1": 24,
        "pm1_unit": "μg/m³",
        "pm10": 72,
        "pm10_unit": "μg/m³",
        "pm25": 38,
        "pm25_unit": "μg/m³",
        "so2": 4.375222,
        "so2_unit": "ppb",
        "temp": 25.94124,
        "temp_unit": "°C"
      }
    },
    {
      "type": "Feature",
      "geometry": {
        "type": "Point",
        "coordinates": [
          73.828611,
          15.525556
        ]
      },
      "properties": {
        "device_id": "MCT2408032",
        "online": true,
        "isPublic": true,
        "time": "2026-10-06T19:07:55.362Z",
        "aqi": 119,
        "co": 202.52,
        "co_unit": "ppb",
        "co2": 557,
        "co2_unit": "ppm",
        "hum": 61.58881,
        "hum_unit": "%",
        "no2": 15.02,
        "no2_unit": "ppb",
        "o3": 17.47,
        "o3_unit": "ppb",
        "pm1": 38.45,
        "pm1_unit": "μg/m³",
        "pm10": 119.47,
        "pm10_unit": "μg/m³",
        "pm25": 63.7,
        "pm25_unit": "μg/m³",
        "so2": 3.17,
        "so2_unit": "ppb",
        "temp": 33.55606,
        "temp_unit": "°C"
      }
    },
    {
      "type": "Feature",
      "geometry": {
        "type": "Point",
        "coordinates": [
          74.067106,
          15.171567
        ]
      },
      "properties": {
        "device_id": "MCT2408036",
        "online": true,
        "isPublic": true,
        "time": "2026-10-06T19:08:13.254Z",
        "aqi": 38,
        "co": 120,
        "co_unit": "ppb",
        "co2": 584,
        "co2_unit": "ppm",
        "hum": 86.77344,
        "hum_unit": "%",
        "no2": 10.2,
        "no2_unit": "ppb",
        "o3": 6.84,
        "o3_unit": "ppb",
        "pm1": 13.16,
        "pm1_unit": "μg/m³",
        "pm10": 37.99,
        "pm10_unit": "μg/m³",
        "pm25": 19.76,
        "pm25_unit": "μg/m³",
        "so2": 10.99,
        "so2_unit": "ppb",
        "temp": 26.16647,
        "temp_unit": "°C"
      }
    },
    {
      "type": "Feature",
      "geometry": {
        "type": "Point",
        "coordinates": [
          74.149167,
          15.290833
        ]
      },
      "properties": {
        "device_id": "MCT2408031",
        "online": true,
        "isPublic": true,
        "time": "2026-10-06T19:07:47.404Z",
        "aqi": 35,
        "co": 140,
        "co_unit": "ppb",
        "co2": 659,
        "co2_unit": "ppm",
        "hum": 87.19305,
        "hum_unit": "%",
        "no2": 7.151605,
        "no2_unit": "ppb",
        "o3": 9.098737,
        "o3_unit": "ppb",
        "pm1": 11.9,
        "pm1_unit": "μg/m³",
        "pm10": 31.74,
        "pm10_unit": "μg/m³",
        "pm25": 17.62,
        "pm25_unit": "μg/m³",
        "so2": 4.47,
        "so2_unit": "ppb",
        "temp": 25.64094,
        "temp_unit": "°C"
      }
    },
    {
      "type": "Feature",
      "geometry": {
        "type": "Point",
        "coordinates": [
          74.125,
          15.236111
        ]
      },
      "properties": {
        "device_id": "MCT2408035",
        "online": true,
        "isPublic": true,
        "time": "2026-10-06T19:07:52.924Z",
        "aqi": 44,
        "co": 190,
        "co_unit": "ppb",
        "co2": 681,
        "co2_unit": "ppm",
        "hum": 88.3985,
        "hum_unit": "%",
        "no2": 17.53162,
        "no2_unit": "ppb",
        "o3": 6.87,
        "o3_unit": "ppb",
        "pm1": 7.6,
        "pm1_unit": "μg/m³",
        "pm10": 23.02,
        "pm10_unit": "μg/m³",
        "pm25": 12.08,
        "pm25_unit": "μg/m³",
        "so2": 3.83,
        "so2_unit": "ppb",
        "temp": 26.55257,
        "temp_unit": "°C"
      }
    },
    {
      "type": "Feature",
      "geometry": {
        "type": "Point",
        "coordinates": [
          74.110833,
          15.163611
        ]
      },
      "properties": {
        "device_id": "MCT2408039",
        "online": true,
        "isPublic": true,
        "time": "2026-10-06T19:07:46.836Z",
        "aqi": 46,
        "co": 236.76,
        "co_unit": "ppb",
        "co2": 498,
        "co2_unit": "ppm",
        "hum": 84.81268,
        "hum_unit": "%",
        "no2": 13.28,
        "no2_unit": "ppb",
        "o3": 10.3,
        "o3_unit": "ppb",
        "pm1": 13.53,
        "pm1_unit": "μg/m³",
        "pm10": 45.48,
        "pm10_unit": "μg/m³",
        "pm25": 19.09,
        "pm25_unit": "μg/m³",
        "so2": 2.3,
        "so2_unit": "ppb",
        "temp": 26.38097,
        "temp_unit": "°C"
      }
    },
    {
      "type": "Feature",
      "geometry": {
        "type": "Point",
        "coordinates": [
          74.055556,
          15.188889
        ]
      },
      "properties": {
        "device_id": "MCT2408038",
        "online": true,
        "isPublic": true,
        "time": "2026-10-06T19:07:40.838Z",
        "aqi": 40,
        "co": 235.16,
        "co_unit": "ppb",
        "co2": 768,
        "co2_unit": "ppm",
        "hum": 86.02576,
        "hum_unit": "%",
        "no2": 9.04,
        "no2_unit": "ppb",
        "o3": 13.33,
        "o3_unit": "ppb",
        "pm1": 13.63,
        "pm1_unit": "μg/m³",
        "pm10": 38.77,
        "pm10_unit": "μg/m³",
        "pm25": 18.74,
        "pm25_unit": "μg/m³",
        "so2": 4.72,
        "so2_unit": "ppb",
        "temp": 26.80997,
        "temp_unit": "°C"
      }
    },
    {
      "type": "Feature",
      "geometry": {
        "type": "Point",
        "coordinates": [
          74.198281,
          15.2467
        ]
      },
      "properties": {
        "device_id": "MCT2408026",
        "online": true,
        "isPublic": true,
        "time": "2026-10-06T19:07:56.631Z",
        "aqi": 118,
        "co": 125,
        "co_unit": "ppb",
        "co2": 541,
        "co2_unit": "ppm",
        "hum": 84.12604,
        "hum_unit": "%",
        "no2": 13.01518,
        "no2_unit": "ppb",
        "o3": 12.5,
        "o3_unit": "ppb",
        "pm1": 21.74,
        "pm1_unit": "μg/m³",
        "pm10": 65.76,
        "pm10_unit": "μg/m³",
        "pm25": 33.75,
        "pm25_unit": "μg/m³",
        "so2": 50.6,
        "so2_unit": "ppb",
        "temp": 27.60363,
        "temp_unit": "°C"
      }
    },
    {
      "type": "Feature",
      "geometry": {
        "type": "Point",
        "coordinates": [
          74.206944,
          15.333611
        ]
      },
      "properties": {
        "device_id": "MCT2408029",
        "online": false,
        "isPublic": true,
        "time": "2026-10-06T02:57:18.047Z",
        "aqi": 54,
        "co": 146.0146,
        "co_unit": "ppb",
        "co2": 803,
        "co2_unit": "ppm",
        "hum": 90.76361,
        "hum_unit": "%",
        "no2": 20.56,
        "no2_unit": "ppb",
        "o3": 38.93,
        "o3_unit": "ppb",
        "pm1": 15.88,
        "pm1_unit": "μg/m³",
        "pm10": 47.4,
        "pm10_unit": "μg/m³",
        "pm25": 25.29,
        "pm25_unit": "μg/m³",
        "so2": 4.33,
        "so2_unit": "ppb",
        "temp": 27.95756,
        "temp_unit": "°C"
      }
    },
    {
      "type": "Feature",
      "geometry": {
        "type": "Point",
        "coordinates": [
          79.815278,
          19.766389
        ]
      },
      "properties": {
        "device_id": "MCT2408047",
        "online": false,
        "isPublic": true,
        "time": "2025-06-11T07:25:15.871Z",
        "aqi": 53,
        "co": 80,
        "co_unit": "ppb",
        "co2": 476,
        "co2_unit": "ppm",
        "hum": 58.46075439,
        "hum_unit": "%",
        "no2": 9.716417313,
        "no2_unit": "ppb",
        "o3": 25.15094376,
        "o3_unit": "ppb",
        "pm1": 28.88225746,
        "pm1_unit": "μg/m³",
        "pm10": 63.20907593,
        "pm10_unit": "μg/m³",
        "pm25": 36.90222549,
        "pm25_unit": "μg/m³",
        "so2": 6.876796722,
        "so2_unit": "ppb",
        "temp": 35.15409851,
        "temp_unit": "°C"
      }
    },
    {
      "type": "Feature",
      "geometry": {
        "type": "Point",
        "coordinates": [
          79.808056,
          19.779444
        ]
      },
      "properties": {
        "device_id": "MCT2408058",
        "online": false,
        "isPublic": true,
        "time": "2025-06-11T15:04:00.458Z",
        "aqi": 101,
        "co": 52.71,
        "co_unit": "ppb",
        "co2": 1006,
        "co2_unit": "ppm",
        "hum": 79.89172363,
        "hum_unit": "%",
        "no2": 2.73,
        "no2_unit": "ppb",
        "o3": 15.03,
        "o3_unit": "ppb",
        "pm1": 37,
        "pm1_unit": "μg/m³",
        "pm10": 113,
        "pm10_unit": "μg/m³",
        "pm25": 60,
        "pm25_unit": "μg/m³",
        "so2": 1.72,
        "so2_unit": "ppb",
        "temp": 31.34668732,
        "temp_unit": "°C"
      }
    },
    {
      "type": "Feature",
      "geometry": {
        "type": "Point",
        "coordinates": [
          79.809722,
          19.773056
        ]
      },
      "properties": {
        "device_id": "MCT2408060",
        "online": false,
        "isPublic": true,
        "time": "2025-06-11T15:21:52.662Z",
        "aqi": 262,
        "co": 15225.88,
        "co_unit": "ppb",
        "co2": 597,
        "co2_unit": "ppm",
        "hum": 85.61376953,
        "hum_unit": "%",
        "no2": 99.3,
        "no2_unit": "ppb",
        "o3": 1450.54,
        "o3_unit": "ppb",
        "pm1": 33,
        "pm1_unit": "μg/m³",
        "pm10": 117,
        "pm10_unit": "μg/m³",
        "pm25": 70,
        "pm25_unit": "μg/m³",
        "so2": 233.77,
        "so2_unit": "ppb",
        "temp": 30.00605011,
        "temp_unit": "°C"
      }
    },
    {
      "type": "Feature",
      "geometry": {
        "type": "Point",
        "coordinates": [
          79.895556,
          19.888611
        ]
      },
      "properties": {
        "device_id": "MCT2408062",
        "online": false,
        "isPublic": true,
        "time": "2025-06-12T06:10:46.766Z",
        "aqi": 107,
        "co": 44.18,
        "co_unit": "ppb",
        "co2": 448,
        "co2_unit": "ppm",
        "hum": 53.58557129,
        "hum_unit": "%",
        "no2": 2.08,
        "no2_unit": "ppb",
        "o3": 8.96,
        "o3_unit": "ppb",
        "pm1": 33,
        "pm1_unit": "μg/m³",
        "pm10": 95,
        "pm10_unit": "μg/m³",
        "pm25": 48,
        "pm25_unit": "μg/m³",
        "so2": 3.88,
        "so2_unit": "ppb",
        "temp": 38.85425568,
        "temp_unit": "°C"
      }
    },
    {
      "type": "Feature",
      "geometry": {
        "type": "Point",
        "coordinates": [
          79.812222,
          19.768333
        ]
      },
      "properties": {
        "device_id": "MCT2408068",
        "online": false,
        "isPublic": true,
        "time": "2025-06-11T15:46:41.024Z",
        "aqi": 91,
        "co": 100,
        "co_unit": "ppb",
        "co2": 616,
        "co2_unit": "ppm",
        "hum": 83.012146,
        "hum_unit": "%",
        "no2": 7.32,
        "no2_unit": "ppb",
        "o3": 13.12,
        "o3_unit": "ppb",
        "pm1": 31,
        "pm1_unit": "μg/m³",
        "pm10": 95,
        "pm10_unit": "μg/m³",
        "pm25": 51,
        "pm25_unit": "μg/m³",
        "so2": 0.63,
        "so2_unit": "ppb",
        "temp": 29.93097496,
        "temp_unit": "°C"
      }
    },
    {
      "type": "Feature",
      "geometry": {
        "type": "Point",
        "coordinates": [
          79.814722,
          19.773889
        ]
      },
      "properties": {
        "device_id": "MCT2408069",
        "online": false,
        "isPublic": true,
        "time": "2025-06-11T11:49:47.640Z",
        "aqi": 106,
        "co": 263.68,
        "co_unit": "ppb",
        "co2": 438,
        "co2_unit": "ppm",
        "hum": 67.82202148,
        "hum_unit": "%",
        "no2": 11.6,
        "no2_unit": "ppb",
        "o3": 82.42,
        "o3_unit": "ppb",
        "pm1": 41,
        "pm1_unit": "μg/m³",
        "pm10": 124,
        "pm10_unit": "μg/m³",
        "pm25": 65,
        "pm25_unit": "μg/m³",
        "so2": 0.36,
        "so2_unit": "ppb",
        "temp": 33.79200745,
        "temp_unit": "°C"
      }
    }
  ]
}